[{"OBJECT_NAME":"YAOGAN-30 10A","OBJECT_ID":"2021-055A","EPOCH":"2026-03-09T23:48:28.291104","MEAN_MOTION":15.02193247,"ECCENTRICITY":0.0004983,"INCLINATION":34.9965,"RA_OF_ASC_NODE":36.5937,"ARG_OF_PERICENTER":279.793,"MEAN_ANOMALY":80.2215,"EPHEMERIS_TYPE":0,"CLASSIFICATION_TYPE":"U","NORAD_CAT_ID":48860,"ELEMENT_SET_NO":999,"REV_AT_EPOCH":25825,"BSTAR":0.00036861198,"MEAN_MOTION_DOT":4.929e-5,"MEAN_MOTION_DDOT":0},{"OBJECT_NAME":"STARLINK-4344","OBJECT_ID":"2022-077AF","EPOCH":"2026-03-09T12:18:42.862176","MEAN_MOTION":15.05647696,"ECCENTRICITY":0.00013562,"INCLINATION":97.6026,"RA_OF_ASC_NODE":251.0167,"ARG_OF_PERICENTER":90.2104,"MEAN_ANOMALY":269.9278,"EPHEMERIS_TYPE":0,"CLASSIFICATION_TYPE":"U","NORAD_CAT_ID":53072,"ELEMENT_SET_NO":999,"REV_AT_EPOCH":20095,"BSTAR":2.2299596e-5,"MEAN_MOTION_DOT":2.61e-6,"MEAN_MOTION_DDOT":0}]
